{
    "links": {
        "self": "http://www.neowsapp.com/rest/v1/neo/3578822?api_key=iIulBulltgU6a56xZRHN4H3l9WmuAYTsLGpBGhQ2"
    },
    "id": "3578822",
    "neo_reference_id": "3578822",
    "name": "(2011 SZ15)",
    "designation": "2011 SZ15",
    "nasa_jpl_url": "http://ssd.jpl.nasa.gov/sbdb.cgi?sstr=3578822",
    "absolute_magnitude_h": 21.5,
    "estimated_diameter": {
        "kilometers": {
            "estimated_diameter_min": 0.1332155667,
            "estimated_diameter_max": 0.2978790628
        },
        "meters": {
            "estimated_diameter_min": 133.2155666981,
            "estimated_diameter_max": 297.8790627982
        },
        "miles": {
            "estimated_diameter_min": 0.0827762899,
            "estimated_diameter_max": 0.1850934111
        },
        "feet": {
            "estimated_diameter_min": 437.0589598459,
            "estimated_diameter_max": 977.2935443908
        }
    },
    "is_potentially_hazardous_asteroid": false,
    "close_approach_data": [
        {
            "close_approach_date": "2002-09-05",
            "close_approach_date_full": "2002-Sep-05 02:25",
            "epoch_date_close_approach": 1031192700000,
            "relative_velocity": {
                "kilometers_per_second": "20.8091268021",
                "kilometers_per_hour": "74912.8564875762",
                "miles_per_hour": "46547.9357436276"
            },
            "miss_distance": {
                "astronomical": "0.4578958718",
                "lunar": "178.1214941302",
                "kilometers": "68500247.103073066",
                "miles": "42564079.8272416708"
            },
            "orbiting_body": "Earth"
        },
        {
            "close_approach_date": "2011-10-17",
            "close_approach_date_full": "2011-Oct-17 04:08",
            "epoch_date_close_approach": 1318824480000,
            "relative_velocity": {
                "kilometers_per_second": "11.5121445974",
                "kilometers_per_hour": "41443.7205507718",
                "miles_per_hour": "25751.5162500059"
            },
            "miss_distance": {
                "astronomical": "0.2254301942",
                "lunar": "87.6923455438",
                "kilometers": "33723876.886006354",
                "miles": "20955045.3985975252"
            },
            "orbiting_body": "Earth"
        }
    ],
    "orbital_data": {
        "orbit_id": "12",
        "orbit_determination_date": "2017-04-06 08:52:50",
        "first_observation_date": "2011-09-18",
        "last_observation_date": "2011-11-22",
        "data_arc_in_days": 65,
        "observations_used": 36,
        "orbit_uncertainty": "6",
        "minimum_orbit_intersection": ".117745",
        "jupiter_tisserand_invariant": "2.996",
        "epoch_osculation": "2459000.5",
        "eccentricity": ".608325463298578",
        "semi_major_axis": "2.75099118279031",
        "inclination": "16.95196528857639",
        "ascending_node_longitude": "176.454076003703",
        "orbital_period": "1666.603250472481",
        "perihelion_distance": "1.077493196989092",
        "perihelion_argument": "211.3266242581397",
        "aphelion_distance": "4.424489168591529",
        "perihelion_time": "2459183.449426410087",
        "mean_anomaly": "320.4814202246639",
        "mean_motion": ".2160082190514991",
        "equinox": "J2000",
        "orbit_class": {
            "orbit_class_type": "AMO",
            "orbit_class_description": "Near-Earth asteroid orbits similar to that of 1221 Amor",
            "orbit_class_range": "1.017 AU < q (perihelion) < 1.3 AU"
        }
    },
    "is_sentry_object": false
}